NORAD_CAT_ID,OBJECT_NAME,OBJECT_TYPE,EPOCH,MEAN_MOTION,ECCENTRICITY,INCLINATION,RA_OF_ASC_NODE,ARG_OF_PERICENTER,MEAN_ANOMALY,BSTAR,MEAN_MOTION_DOT,MEAN_MOTION_DDOT,TLE_LINE0,TLE_LINE1,TLE_LINE2,SEMIMAJOR_AXIS,PERIOD,APOGEE,PERIGEE,DECAYED
49742.0,STARLINK-3202,PAYLOAD,2024-07-30 09:54:20,15.08839866,0.000132,53.2149,265.5086,92.4114,267.7029,9.8484e-05,1.28e-05,0.0,0 STARLINK-3202,1 49742U 21115U   24212.41273421  .00001280  00000-0  98484-4 0  9999,2 49742  53.2149 265.5086 0001320  92.4114 267.7029 15.08839866146874,6917.881,95.438,540.659,538.833,0.0
49742.0,STARLINK-3202,PAYLOAD,2024-07-30 21:02:02,15.08843217,0.0001339,53.2151,263.4275,91.7157,268.3988,0.00017204,2.451e-05,0.0,0 STARLINK-3202,1 49742U 21115U   24212.87641391  .00002451  00000-0  17204-3 0  9995,2 49742  53.2151 263.4275 0001339  91.7157 268.3988 15.08843217146947,6917.871,95.437,540.662,538.809,0.0
49742.0,STARLINK-3202,PAYLOAD,2024-07-31 09:45:07,15.08841316,0.0001384,53.215,261.0488,93.1045,267.0105,0.0001669,2.369e-05,0.0,0 STARLINK-3202,1 49742U 21115U   24213.40633597  .00002369  00000-0  16690-3 0  9990,2 49742  53.2150 261.0488 0001384  93.1045 267.0105 15.08841316148136,6917.876,95.437,540.699,538.784,0.0
49742.0,STARLINK-3202,PAYLOAD,2024-08-01 09:35:54,15.08848943,0.0001366,53.215,256.5882,93.013,267.1018,0.0002212,3.235e-05,0.0,0 STARLINK-3202,1 49742U 21115U   24214.39993152  .00003235  00000-0  22120-3 0  9993,2 49742  53.2150 256.5882 0001366  93.0130 267.1018 15.08848943147177,6917.853,95.437,540.663,538.773,0.0
49742.0,STARLINK-3202,PAYLOAD,2024-08-02 12:37:27,15.08846385,0.0001358,53.2153,251.536,89.0784,271.0364,0.0001217,1.65e-05,0.0,0 STARLINK-3202,1 49742U 21115U   24215.52601014  .00001650  00000-0  12170-3 0  9995,2 49742  53.2153 251.5360 0001358  89.0784 271.0364 15.08846385148455,6917.861,95.437,540.665,538.786,0.0
49742.0,STARLINK-3202,PAYLOAD,2024-08-03 09:17:28,15.08837251,0.0001391,53.2156,247.6713,95.1374,264.9777,5.5553e-05,5.96e-06,0.0,0 STARLINK-3202,1 49742U 21115U   24216.38713705  .00000596  00000-0  55553-4 0  9992,2 49742  53.2156 247.6713 0001391  95.1374 264.9777 15.08837251148581,6917.889,95.438,540.716,538.792,0.0
49742.0,STARLINK-3202,PAYLOAD,2024-08-03 18:49:47,15.08838239,0.0001395,53.2153,245.8868,93.1982,266.917,-1.0331e-05,-4.52e-06,0.0,0 STARLINK-3202,1 49742U 21115U   24216.78457774 -.00000452  00000-0 -10331-4 0  9995,2 49742  53.2153 245.8868 0001395  93.1982 266.9170 15.08838239147536,6917.886,95.438,540.716,538.786,0.0
49742.0,STARLINK-3202,PAYLOAD,2024-08-04 12:19:01,15.08840841,0.0001482,53.2157,242.6159,93.5433,266.5729,8.523e-05,1.069e-05,0.0,0 STARLINK-3202,1 49742U 21115U   24217.51321689  .00001069  00000-0  85230-4 0  9995,2 49742  53.2157 242.6159 0001482  93.5433 266.5729 15.08840841148753,6917.878,95.438,540.768,538.718,0.0
49742.0,STARLINK-3202,PAYLOAD,2024-08-04 18:40:34,15.08840382,0.0001453,53.2155,241.4258,89.5775,270.5384,6.5228e-05,7.5e-06,0.0,0 STARLINK-3202,1 49742U 21115U   24217.77817810  .00000750  00000-0  65228-4 0  9990,2 49742  53.2155 241.4258 0001453  89.5775 270.5384 15.08840382147683,6917.879,95.438,540.749,538.739,0.0
49742.0,STARLINK-3202,PAYLOAD,2024-08-05 08:59:02,15.08845206,0.000146,53.2155,238.749,89.3532,270.7627,0.00013033,1.787e-05,0.0,0 STARLINK-3202,1 49742U 21115U   24218.37433517  .00001787  00000-0  13033-3 0  9992,2 49742  53.2155 238.7490 0001460  89.3532 270.7627 15.08845206147779,6917.864,95.437,540.739,538.719,0.0
49742.0,STARLINK-3202,PAYLOAD,2024-08-06 05:39:04,15.08833925,0.0001481,53.2169,234.8816,94.305,265.8112,7.3069e-05,8.75e-06,0.0,0 STARLINK-3202,1 49742U 21115U   24219.23546600  .00000875  00000-0  73069-4 0  9999,2 49742  53.2169 234.8816 0001481  94.3050 265.8112 15.08833925149015,6917.899,95.438,540.788,538.739,0.0
49742.0,STARLINK-3202,PAYLOAD,2024-08-06 08:49:50,15.08837146,0.0001404,53.2157,234.2867,92.7469,267.3683,5.3349e-05,5.61e-06,0.0,0 STARLINK-3202,1 49742U 21115U   24219.36794461  .00000561  00000-0  53349-4 0  9994,2 49742  53.2157 234.2867 0001404  92.7469 267.3683 15.08837146147920,6917.889,95.438,540.725,538.783,0.0
49742.0,STARLINK-3202,PAYLOAD,2024-08-06 18:22:09,15.08838829,0.0001416,53.2158,232.5021,95.3199,264.7955,5.3634e-05,5.66e-06,0.0,0 STARLINK-3202,1 49742U 21115U   24219.76538394  .00000566  00000-0  53634-4 0  9991,2 49742  53.2158 232.5021 0001416  95.3199 264.7955 15.08838829147984,6917.884,95.438,540.729,538.769,0.0
49742.0,STARLINK-3202,PAYLOAD,2024-08-07 05:29:50,15.08844411,0.0001424,53.2154,230.4207,92.9058,267.2097,9.8077e-05,1.273e-05,0.0,0 STARLINK-3202,1 49742U 21115U   24220.22905990  .00001273  00000-0  98077-4 0  9990,2 49742  53.2154 230.4207 0001424  92.9058 267.2097 15.08844411149160,6917.867,95.437,540.717,538.747,0.0
49742.0,STARLINK-3202,PAYLOAD,2024-08-08 06:56:00,15.08846158,0.0001371,53.2151,225.6628,97.7945,262.3203,0.0001889,2.72e-05,0.0,0 STARLINK-3202,1 49742U 21115U   24221.28889841  .00002720  00000-0  18890-3 0  9995,2 49742  53.2151 225.6628 0001371  97.7945 262.3203 15.08846158148219,6917.862,95.437,540.675,538.778,0.0
49742.0,STARLINK-3202,PAYLOAD,2024-08-09 05:11:24,15.08843857,0.00015,53.2147,221.5,93.5463,266.57,6.9651e-05,8.21e-06,0.0,0 STARLINK-3202,1 49742U 21115U   24222.21626024  .00000821  00000-0  69651-4 0  9993,2 49742  53.2147 221.5000 0001500  93.5463 266.5700 15.08843857149465,6917.869,95.437,540.771,538.696,0.0
49742.0,STARLINK-3202,PAYLOAD,2024-08-09 09:57:34,15.08846663,0.0001481,53.2157,220.6073,100.1631,259.9528,6.3823e-05,7.28e-06,0.0,0 STARLINK-3202,1 49742U 21115U   24222.41497789  .00000728  00000-0  63823-4 0  9990,2 49742  53.2157 220.6073 0001481 100.1631 259.9528 15.08846663148388,6917.86,95.437,540.75,538.7,0.0
49742.0,STARLINK-3202,PAYLOAD,2024-08-10 03:26:49,15.0883734,0.0001573,53.2164,217.3337,107.6878,252.4286,1.6607e-05,-2.4e-07,0.0,0 STARLINK-3202,1 49742U 21115U   24223.14362369 -.00000024  00000-0  16607-4 0  9994,2 49742  53.2164 217.3337 0001573 107.6878 252.4286 15.08837340149606,6917.889,95.438,540.842,538.665,0.0
49742.0,STARLINK-3202,PAYLOAD,2024-08-10 09:48:21,15.08839819,0.0001595,53.2163,216.1444,107.6396,252.477,3.2354e-05,2.27e-06,0.0,0 STARLINK-3202,1 49742U 21115U   24223.40858143  .00000227  00000-0  32354-4 0  9994,2 49742  53.2163 216.1444 0001595 107.6396 252.4770 15.08839819148532,6917.881,95.438,540.849,538.643,0.0
49742.0,STARLINK-3202,PAYLOAD,2024-08-11 08:03:45,15.08842149,0.0001412,53.2164,211.9852,94.301,265.8144,4.1553e-05,3.73e-06,0.0,0 STARLINK-3202,1 49742U 21115U   24224.33594306  .00000373  00000-0  41553-4 0  9998,2 49742  53.2164 211.9852 0001412  94.3010 265.8144 15.08842149149783,6917.874,95.437,540.716,538.762,0.0
49742.0,STARLINK-3202,PAYLOAD,2024-08-11 16:00:41,15.08840496,0.0001277,53.2155,210.4957,89.3282,270.7856,5.3472e-05,5.63e-06,0.0,0 STARLINK-3202,1 49742U 21115U   24224.66714386  .00000563  00000-0  53472-4 0  9990,2 49742  53.2155 210.4957 0001277  89.3282 270.7856 15.08840496148728,6917.879,95.438,540.627,538.86,0.0
49742.0,STARLINK-3202,PAYLOAD,2024-08-12 07:54:31,15.0885915,0.0001578,53.2167,207.5244,103.186,256.9309,0.00021115,3.076e-05,0.0,0 STARLINK-3202,1 49742U 21115U   24225.32952883  .00003076  00000-0  21115-3 0  9990,2 49742  53.2167 207.5244 0001578 103.1860 256.9309 15.08859150149938,6917.822,95.436,540.778,538.595,0.0
49742.0,STARLINK-3202,PAYLOAD,2024-08-12 15:51:27,15.08855368,0.000157,53.2162,206.0379,83.3158,276.8013,0.00027348,4.069e-05,0.0,0 STARLINK-3202,1 49742U 21115U   24225.66073359  .00004069  00000-0  27348-3 0  9996,2 49742  53.2162 206.0379 0001570  83.3158 276.8013 15.08855368149982,6917.833,95.437,540.785,538.612,0.0
49742.0,STARLINK-3202,PAYLOAD,2024-08-13 04:34:32,15.08842302,0.0002015,53.2151,203.6574,78.0301,282.0917,-5.8177e-05,-1.214e-05,0.0,0 STARLINK-3202,1 49742U 21115U   24226.19065770 -.00001214  00000-0 -58177-4 0  9999,2 49742  53.2151 203.6574 0002015  78.0301 282.0917 15.08842302150063,6917.873,95.437,541.132,538.344,0.0
49742.0,STARLINK-3202,PAYLOAD,2024-08-13 07:45:19,15.08841642,0.0001946,53.2151,203.0618,74.5422,285.5785,-3.2805e-05,-8.1e-06,0.0,0 STARLINK-3202,1 49742U 21115U   24226.32313814 -.00000810  00000-0 -32805-4 0  9990,2 49742  53.2151 203.0618 0001946  74.5422 285.5785 15.08841642148977,6917.875,95.437,541.087,538.394,0.0
49742.0,STARLINK-3202,PAYLOAD,2024-08-13 15:42:15,15.08835634,0.0001532,53.2169,201.5765,80.6013,279.5152,-1.8076e-05,-5.76e-06,0.0,0 STARLINK-3202,1 49742U 21115U   24226.65434557 -.00000576  00000-0 -18076-4 0  9997,2 49742  53.2169 201.5765 0001532  80.6013 279.5152 15.08835634150133,6917.894,95.438,540.819,538.699,0.0
49742.0,STARLINK-3202,PAYLOAD,2024-08-14 04:25:21,15.0883166,0.0001645,53.2169,199.195,96.978,263.14,-0.00013154,-2.38e-05,0.0,0 STARLINK-3202,1 49742U 21115U   24227.18427497 -.00002380  00000-0 -13154-3 0  9997,2 49742  53.2169 199.1950 0001645  96.9780 263.1400 15.08831660150216,6917.906,95.438,540.909,538.633,0.0
49742.0,STARLINK-3202,PAYLOAD,2024-08-14 07:36:07,15.08831662,0.0001653,53.216,198.601,94.1176,266.0006,-0.00015505,-2.754e-05,0.0,0 STARLINK-3202,1 49742U 21115U   24227.31675705 -.00002754  00000-0 -15505-3 0  9996,2 49742  53.2160 198.6010 0001653  94.1176 266.0006 15.08831662149120,6917.906,95.438,540.914,538.627,0.0
49742.0,STARLINK-3202,PAYLOAD,2024-08-14 15:33:03,15.08837354,0.0001626,53.217,197.1162,94.8053,265.3125,-0.00016214,-2.867e-05,0.0,0 STARLINK-3202,1 49742U 21115U   24227.64795416 -.00002867  00000-0 -16214-3 0  9997,2 49742  53.2170 197.1162 0001626  94.8053 265.3125 15.08837354149177,6917.888,95.438,540.878,538.629,0.0
49742.0,STARLINK-3202,PAYLOAD,2024-08-15 04:16:07,15.08839695,0.0001505,53.2158,194.7365,90.9119,269.2046,3.4024e-05,2.54e-06,0.0,0 STARLINK-3202,1 49742U 21115U   24228.17786937  .00000254  00000-0  34024-4 0  9990,2 49742  53.2158 194.7365 0001505  90.9119 269.2046 15.08839695150365,6917.881,95.438,540.787,538.705,0.0
